CCSDS_OMM_VERS = 2.0
CREATION_DATE  = 
ORIGINATOR     = 

OBJECT_NAME    = SL-16 R/B
OBJECT_ID      = 1994-077B
CENTER_NAME    = EARTH
REF_FRAME      = TEME
TIME_SYSTEM    = UTC
MEAN_ELEMENT_THEORY = SGP/SGP4

EPOCH          = 2026-03-09T04:50:41.974080
MEAN_MOTION    = 14.15561083
ECCENTRICITY   = .0003132
INCLINATION    = 70.9853
RA_OF_ASC_NODE = 353.5151
ARG_OF_PERICENTER = 213.1856
MEAN_ANOMALY   = 146.9071

EPHEMERIS_TYPE = 0
CLASSIFICATION_TYPE = U
NORAD_CAT_ID   = 23405
ELEMENT_SET_NO = 999
REV_AT_EPOCH   = 61616
BSTAR          = -.112E-4
MEAN_MOTION_DOT = -.7E-6
MEAN_MOTION_DDOT = 0

CCSDS_OMM_VERS = 2.0
CREATION_DATE  = 
ORIGINATOR     = 

OBJECT_NAME    = ARIANE 40+ R/B
OBJECT_ID      = 1995-021B
CENTER_NAME    = EARTH
REF_FRAME      = TEME
TIME_SYSTEM    = UTC
MEAN_ELEMENT_THEORY = SGP/SGP4

EPOCH          = 2026-03-09T11:01:56.136864
MEAN_MOTION    = 14.39772237
ECCENTRICITY   = .0007651
INCLINATION    = 98.4498
RA_OF_ASC_NODE = 139.9455
ARG_OF_PERICENTER = 136.9661
MEAN_ANOMALY   = 234.1271

EPHEMERIS_TYPE = 0
CLASSIFICATION_TYPE = U
NORAD_CAT_ID   = 23561
ELEMENT_SET_NO = 999
REV_AT_EPOCH   = 61921
BSTAR          = .12814E-3
MEAN_MOTION_DOT = .358E-5
MEAN_MOTION_DDOT = 0

CCSDS_OMM_VERS = 2.0
CREATION_DATE  = 
ORIGINATOR     = 

OBJECT_NAME    = SL-16 R/B
OBJECT_ID      = 1995-058B
CENTER_NAME    = EARTH
REF_FRAME      = TEME
TIME_SYSTEM    = UTC
MEAN_ELEMENT_THEORY = SGP/SGP4

EPOCH          = 2026-03-09T11:47:47.553504
MEAN_MOTION    = 14.15495100
ECCENTRICITY   = .0010805
INCLINATION    = 71.0220
RA_OF_ASC_NODE = 180.6709
ARG_OF_PERICENTER = 126.1873
MEAN_ANOMALY   = 234.0251

EPHEMERIS_TYPE = 0
CLASSIFICATION_TYPE = U
NORAD_CAT_ID   = 23705
ELEMENT_SET_NO = 999
REV_AT_EPOCH   = 56782
BSTAR          = .18024E-3
MEAN_MOTION_DOT = .305E-5
MEAN_MOTION_DDOT = 0

CCSDS_OMM_VERS = 2.0
CREATION_DATE  = 
ORIGINATOR     = 

OBJECT_NAME    = SL-16 R/B
OBJECT_ID      = 1996-051B
CENTER_NAME    = EARTH
REF_FRAME      = TEME
TIME_SYSTEM    = UTC
MEAN_ELEMENT_THEORY = SGP/SGP4

EPOCH          = 2026-03-09T12:41:11.986080
MEAN_MOTION    = 14.12415681
ECCENTRICITY   = .0015081
INCLINATION    = 70.7604
RA_OF_ASC_NODE = 175.5797
ARG_OF_PERICENTER = 148.2767
MEAN_ANOMALY   = 211.9264

EPHEMERIS_TYPE = 0
CLASSIFICATION_TYPE = U
NORAD_CAT_ID   = 24298
ELEMENT_SET_NO = 999
REV_AT_EPOCH   = 52162
BSTAR          = .90255E-4
MEAN_MOTION_DOT = .118E-5
MEAN_MOTION_DDOT = 0

CCSDS_OMM_VERS = 2.0
CREATION_DATE  = 
ORIGINATOR     = 

OBJECT_NAME    = ORBVIEW 2 (SEASTAR)
OBJECT_ID      = 1997-037A
CENTER_NAME    = EARTH
REF_FRAME      = TEME
TIME_SYSTEM    = UTC
MEAN_ELEMENT_THEORY = SGP/SGP4

EPOCH          = 2026-03-09T10:01:45.865344
MEAN_MOTION    = 14.35494733
ECCENTRICITY   = .0003105
INCLINATION    = 98.8567
RA_OF_ASC_NODE = 232.7224
ARG_OF_PERICENTER = 72.6600
MEAN_ANOMALY   = 287.4924

EPHEMERIS_TYPE = 0
CLASSIFICATION_TYPE = U
NORAD_CAT_ID   = 24883
ELEMENT_SET_NO = 999
REV_AT_EPOCH   = 50843
BSTAR          = .15259E-3
MEAN_MOTION_DOT = .392E-5
MEAN_MOTION_DDOT = 0

CCSDS_OMM_VERS = 2.0
CREATION_DATE  = 
ORIGINATOR     = 

OBJECT_NAME    = SL-16 R/B
OBJECT_ID      = 1998-043G
CENTER_NAME    = EARTH
REF_FRAME      = TEME
TIME_SYSTEM    = UTC
MEAN_ELEMENT_THEORY = SGP/SGP4

EPOCH          = 2026-03-09T10:49:21.705024
MEAN_MOTION    = 14.26049745
ECCENTRICITY   = .0010235
INCLINATION    = 98.8252
RA_OF_ASC_NODE = 21.8126
ARG_OF_PERICENTER = 21.1071
MEAN_ANOMALY   = 339.0529

EPHEMERIS_TYPE = 0
CLASSIFICATION_TYPE = U
NORAD_CAT_ID   = 25400
ELEMENT_SET_NO = 999
REV_AT_EPOCH   = 43895
BSTAR          = .62589E-4
MEAN_MOTION_DOT = .104E-5
MEAN_MOTION_DDOT = 0

CCSDS_OMM_VERS = 2.0
CREATION_DATE  = 
ORIGINATOR     = 

OBJECT_NAME    = SL-16 R/B
OBJECT_ID      = 1998-045B
CENTER_NAME    = EARTH
REF_FRAME      = TEME
TIME_SYSTEM    = UTC
MEAN_ELEMENT_THEORY = SGP/SGP4

EPOCH          = 2026-03-09T12:03:40.083264
MEAN_MOTION    = 14.16189919
ECCENTRICITY   = .0006718
INCLINATION    = 71.0118
RA_OF_ASC_NODE = 181.9674
ARG_OF_PERICENTER = 8.3795
MEAN_ANOMALY   = 351.7439

EPHEMERIS_TYPE = 0
CLASSIFICATION_TYPE = U
NORAD_CAT_ID   = 25407
ELEMENT_SET_NO = 999
REV_AT_EPOCH   = 42707
BSTAR          = .10534E-3
MEAN_MOTION_DOT = .161E-5
MEAN_MOTION_DDOT = 0

CCSDS_OMM_VERS = 2.0
CREATION_DATE  = 
ORIGINATOR     = 

OBJECT_NAME    = ISS (ZARYA)
OBJECT_ID      = 1998-067A
CENTER_NAME    = EARTH
REF_FRAME      = TEME
TIME_SYSTEM    = UTC
MEAN_ELEMENT_THEORY = SGP/SGP4

EPOCH          = 2026-03-09T10:46:14.833056
MEAN_MOTION    = 15.48542052
ECCENTRICITY   = .0008027
INCLINATION    = 51.6321
RA_OF_ASC_NODE = 73.5472
ARG_OF_PERICENTER = 173.5451
MEAN_ANOMALY   = 186.5642

EPHEMERIS_TYPE = 0
CLASSIFICATION_TYPE = U
NORAD_CAT_ID   = 25544
ELEMENT_SET_NO = 999
REV_AT_EPOCH   = 55629
BSTAR          = .15192E-3
MEAN_MOTION_DOT = .7802E-4
MEAN_MOTION_DDOT = 0

CCSDS_OMM_VERS = 2.0
CREATION_DATE  = 
ORIGINATOR     = 

OBJECT_NAME    = CZ-4B R/B
OBJECT_ID      = 1999-025C
CENTER_NAME    = EARTH
REF_FRAME      = TEME
TIME_SYSTEM    = UTC
MEAN_ELEMENT_THEORY = SGP/SGP4

EPOCH          = 2026-03-08T22:59:10.229856
MEAN_MOTION    = 14.18265191
ECCENTRICITY   = .00367837
INCLINATION    = 98.6628
RA_OF_ASC_NODE = 112.2567
ARG_OF_PERICENTER = 348.7502
MEAN_ANOMALY   = 61.1373

EPHEMERIS_TYPE = 0
CLASSIFICATION_TYPE = U
NORAD_CAT_ID   = 25732
ELEMENT_SET_NO = 999
REV_AT_EPOCH   = 38806
BSTAR          = .53199639E-4
MEAN_MOTION_DOT = .67E-6
MEAN_MOTION_DDOT = 0

CCSDS_OMM_VERS = 2.0
CREATION_DATE  = 
ORIGINATOR     = 

OBJECT_NAME    = OKEAN-O
OBJECT_ID      = 1999-039A
CENTER_NAME    = EARTH
REF_FRAME      = TEME
TIME_SYSTEM    = UTC
MEAN_ELEMENT_THEORY = SGP/SGP4

EPOCH          = 2026-03-09T10:46:50.451456
MEAN_MOTION    = 14.80334592
ECCENTRICITY   = .0001286
INCLINATION    = 97.9443
RA_OF_ASC_NODE = 128.3432
ARG_OF_PERICENTER = 70.4188
MEAN_ANOMALY   = 289.7162

EPHEMERIS_TYPE = 0
CLASSIFICATION_TYPE = U
NORAD_CAT_ID   = 25860
ELEMENT_SET_NO = 999
REV_AT_EPOCH   = 43435
BSTAR          = .11195E-3
MEAN_MOTION_DOT = .801E-5
MEAN_MOTION_DDOT = 0

CCSDS_OMM_VERS = 2.0
CREATION_DATE  = 
ORIGINATOR     = 

OBJECT_NAME    = SL-16 R/B
OBJECT_ID      = 1999-039B
CENTER_NAME    = EARTH
REF_FRAME      = TEME
TIME_SYSTEM    = UTC
MEAN_ELEMENT_THEORY = SGP/SGP4

EPOCH          = 2026-03-08T18:05:44.424960
MEAN_MOTION    = 14.81730457
ECCENTRICITY   = .0013472
INCLINATION    = 97.9968
RA_OF_ASC_NODE = 126.8521
ARG_OF_PERICENTER = 259.4407
MEAN_ANOMALY   = 100.5288

EPHEMERIS_TYPE = 0
CLASSIFICATION_TYPE = U
NORAD_CAT_ID   = 25861
ELEMENT_SET_NO = 999
REV_AT_EPOCH   = 43672
BSTAR          = .11143293E-3
MEAN_MOTION_DOT = .825E-5
MEAN_MOTION_DDOT = 0

CCSDS_OMM_VERS = 2.0
CREATION_DATE  = 
ORIGINATOR     = 

OBJECT_NAME    = DELTA 2 R/B
OBJECT_ID      = 1999-041E
CENTER_NAME    = EARTH
REF_FRAME      = TEME
TIME_SYSTEM    = UTC
MEAN_ELEMENT_THEORY = SGP/SGP4

EPOCH          = 2026-03-08T22:42:33.467616
MEAN_MOTION    = 14.11835757
ECCENTRICITY   = .05023718
INCLINATION    = 51.7627
RA_OF_ASC_NODE = 304.2503
ARG_OF_PERICENTER = 346.2414
MEAN_ANOMALY   = 12.5237

EPHEMERIS_TYPE = 0
CLASSIFICATION_TYPE = U
NORAD_CAT_ID   = 25876
ELEMENT_SET_NO = 999
REV_AT_EPOCH   = 36292
BSTAR          = .26052408E-3
MEAN_MOTION_DOT = .1382E-4
MEAN_MOTION_DDOT = 0

CCSDS_OMM_VERS = 2.0
CREATION_DATE  = 
ORIGINATOR     = 

OBJECT_NAME    = HELIOS 1B
OBJECT_ID      = 1999-064A
CENTER_NAME    = EARTH
REF_FRAME      = TEME
TIME_SYSTEM    = UTC
MEAN_ELEMENT_THEORY = SGP/SGP4

EPOCH          = 2026-03-09T07:26:49.862112
MEAN_MOTION    = 14.87696838
ECCENTRICITY   = .0002482
INCLINATION    = 98.1692
RA_OF_ASC_NODE = 330.5427
ARG_OF_PERICENTER = 75.7532
MEAN_ANOMALY   = 284.3959

EPHEMERIS_TYPE = 0
CLASSIFICATION_TYPE = U
NORAD_CAT_ID   = 25977
ELEMENT_SET_NO = 999
REV_AT_EPOCH   = 68520
BSTAR          = .23346E-3
MEAN_MOTION_DOT = .2068E-4
MEAN_MOTION_DDOT = 0

CCSDS_OMM_VERS = 2.0
CREATION_DATE  = 
ORIGINATOR     = 

OBJECT_NAME    = TERRA
OBJECT_ID      = 1999-068A
CENTER_NAME    = EARTH
REF_FRAME      = TEME
TIME_SYSTEM    = UTC
MEAN_ELEMENT_THEORY = SGP/SGP4

EPOCH          = 2026-03-09T12:32:26.863296
MEAN_MOTION    = 14.61014591
ECCENTRICITY   = .0002688
INCLINATION    = 97.9594
RA_OF_ASC_NODE = 121.9637
ARG_OF_PERICENTER = 151.6185
MEAN_ANOMALY   = 336.5381

EPHEMERIS_TYPE = 0
CLASSIFICATION_TYPE = U
NORAD_CAT_ID   = 25994
ELEMENT_SET_NO = 999
REV_AT_EPOCH   = 39505
BSTAR          = .12886E-3
MEAN_MOTION_DOT = .588E-5
MEAN_MOTION_DDOT = 0

CCSDS_OMM_VERS = 2.0
CREATION_DATE  = 
ORIGINATOR     = 

OBJECT_NAME    = SL-16 R/B
OBJECT_ID      = 2000-006B
CENTER_NAME    = EARTH
REF_FRAME      = TEME
TIME_SYSTEM    = UTC
MEAN_ELEMENT_THEORY = SGP/SGP4

EPOCH          = 2026-03-09T12:25:47.583840
MEAN_MOTION    = 14.15825785
ECCENTRICITY   = .0016793
INCLINATION    = 71.0010
RA_OF_ASC_NODE = 98.1989
ARG_OF_PERICENTER = 190.4760
MEAN_ANOMALY   = 169.6015

EPHEMERIS_TYPE = 0
CLASSIFICATION_TYPE = U
NORAD_CAT_ID   = 26070
ELEMENT_SET_NO = 999
REV_AT_EPOCH   = 34853
BSTAR          = -.20683E-4
MEAN_MOTION_DOT = -.89E-6
MEAN_MOTION_DDOT = 0

